NORAD_CAT_ID,OBJECT_NAME,OBJECT_TYPE,EPOCH,MEAN_MOTION,ECCENTRICITY,INCLINATION,RA_OF_ASC_NODE,ARG_OF_PERICENTER,MEAN_ANOMALY,BSTAR,MEAN_MOTION_DOT,MEAN_MOTION_DDOT,TLE_LINE0,TLE_LINE1,TLE_LINE2,SEMIMAJOR_AXIS,PERIOD,APOGEE,PERIGEE,DECAYED
53573.0,STARLINK-4547,PAYLOAD,2023-06-04 15:05:10,15.08840932,5.98e-05,53.2154,263.8029,89.8921,270.214,9.1857e-05,1.175e-05,0.0,0 STARLINK-4547,1 53573U 22101AY  23155.62859687  .00001175  00000-0  91857-4 0  9994,2 53573  53.2154 263.8029 0000598  89.8921 270.2140 15.08840932 44110,6917.878,95.437,540.156,539.329,0.0
53573.0,STARLINK-4547,PAYLOAD,2023-06-05 02:12:53,15.08802833,7.99e-05,53.2153,261.7216,104.4104,255.6977,0.00076071,0.00011827,0.0,0 STARLINK-4547,1 53573U 22101AY  23156.09229035  .00011827  00000-0  76071-3 0  9999,2 53573  53.2153 261.7216 0000799 104.4104 255.6977 15.08802833 44184,6917.994,95.44,540.412,539.306,0.0
53573.0,STARLINK-4547,PAYLOAD,2023-06-05 08:34:24,15.08845035,6.52e-05,53.2154,260.532,82.6213,277.4853,0.00017148,2.443e-05,0.0,0 STARLINK-4547,1 53573U 22101AY  23156.35723291  .00002443  00000-0  17148-3 0  9995,2 53573  53.2154 260.5320 0000652  82.6213 277.4853 15.08845035 44225,6917.865,95.437,540.181,539.279,0.0
53573.0,STARLINK-4547,PAYLOAD,2023-06-05 13:20:34,15.08843606,5.27e-05,53.2155,259.6399,95.2006,264.9046,0.00034463,5.202e-05,0.0,0 STARLINK-4547,1 53573U 22101AY  23156.55595110  .00005202  00000-0  34463-3 0  9999,2 53573  53.2155 259.6399 0000527  95.2006 264.9046 15.08843606 44252,6917.869,95.437,540.099,539.37,0.0
53573.0,STARLINK-4547,PAYLOAD,2023-06-06 11:35:58,15.08839052,6.88e-05,53.2148,255.4764,87.935,272.1721,2.2446e-05,7e-07,0.0,0 STARLINK-4547,1 53573U 22101AY  23157.48331576  .00000070  00000-0  22446-4 0  9993,2 53573  53.2148 255.4764 0000688  87.9350 272.1721 15.08839052 44398,6917.883,95.438,540.224,539.272,0.0
53573.0,STARLINK-4547,PAYLOAD,2023-06-06 16:22:07,15.08843331,8.06e-05,53.2158,254.5822,115.2773,244.8303,1.6374e-05,-2.7e-07,0.0,0 STARLINK-4547,1 53573U 22101AY  23157.68203312 -.00000027  00000-0  16374-4 0  9997,2 53573  53.2158 254.5822 0000806 115.2773 244.8303 15.08843331 44421,6917.87,95.437,540.293,539.178,0.0
53573.0,STARLINK-4547,PAYLOAD,2023-06-06 17:57:30,15.0884855,7.23e-05,53.2154,254.2868,112.0191,248.0878,6.5164e-05,7.5e-06,0.0,0 STARLINK-4547,1 53573U 22101AY  23157.74826832  .00000750  00000-0  65164-4 0  9995,2 53573  53.2154 254.2868 0000723 112.0191 248.0878 15.08848550 44433,6917.854,95.437,540.219,539.219,0.0
53573.0,STARLINK-4547,PAYLOAD,2023-06-07 09:51:22,15.08837489,7.23e-05,53.2154,251.3143,84.4303,275.6771,-4.4169e-05,-9.9e-06,0.0,0 STARLINK-4547,1 53573U 22101AY  23158.41067917 -.00000990  00000-0 -44169-4 0  9991,2 53573  53.2154 251.3143 0000723  84.4303 275.6771 15.08837489 44532,6917.888,95.438,540.253,539.253,0.0
53573.0,STARLINK-4547,PAYLOAD,2023-06-07 16:12:54,15.08844073,6.59e-05,53.2153,250.1239,92.9752,267.1315,-3.6063e-05,-8.62e-06,0.0,0 STARLINK-4547,1 53573U 22101AY  23158.67563413 -.00000862  00000-0 -36063-4 0  9993,2 53573  53.2153 250.1239 0000659  92.9752 267.1315 15.08844073 44575,6917.868,95.437,540.189,539.277,0.0
53573.0,STARLINK-4547,PAYLOAD,2023-06-08 11:17:32,15.08837989,7.76e-05,53.215,246.5554,92.3237,267.7844,0.00012107,1.64e-05,0.0,0 STARLINK-4547,1 53573U 22101AY  23159.47051672  .00001640  00000-0  12107-3 0  9996,2 53573  53.2150 246.5554 0000776  92.3237 267.7844 15.08837989 44697,6917.887,95.438,540.288,539.215,0.0
53573.0,STARLINK-4547,PAYLOAD,2023-06-08 17:39:04,15.08848356,7.67e-05,53.2151,245.3658,91.178,268.93,0.00014523,2.025e-05,0.0,0 STARLINK-4547,1 53573U 22101AY  23159.73546976  .00002025  00000-0  14523-3 0  9993,2 53573  53.2151 245.3658 0000767  91.1780 268.9300 15.08848356 44735,6917.855,95.437,540.25,539.189,0.0
53573.0,STARLINK-4547,PAYLOAD,2023-06-09 12:43:42,15.08838572,7.97e-05,53.2138,241.7981,87.4741,272.6343,5.9969e-05,6.67e-06,0.0,0 STARLINK-4547,1 53573U 22101AY  23160.53035810  .00000667  00000-0  59969-4 0  9997,2 53573  53.2138 241.7981 0000797  87.4741 272.6343 15.08838572 44858,6917.885,95.438,540.301,539.198,0.0
53573.0,STARLINK-4547,PAYLOAD,2023-06-09 15:54:29,15.08840562,7.74e-05,53.214,241.2032,85.0358,275.0723,8.2112e-05,1.019e-05,0.0,0 STARLINK-4547,1 53573U 22101AY  23160.66283724  .00001019  00000-0  82112-4 0  9998,2 53573  53.2140 241.2032 0000774  85.0358 275.0723 15.08840562 44879,6917.879,95.438,540.279,539.208,0.0
53573.0,STARLINK-4547,PAYLOAD,2023-06-10 04:37:34,15.08834914,8.14e-05,53.2139,238.824,88.2197,271.8888,2.5372e-05,1.16e-06,0.0,0 STARLINK-4547,1 53573U 22101AY  23161.19276153  .00000116  00000-0  25372-4 0  9997,2 53573  53.2139 238.8240 0000814  88.2197 271.8888 15.08834914 44950,6917.896,95.438,540.324,539.198,0.0
53573.0,STARLINK-4547,PAYLOAD,2023-06-10 12:34:30,15.08840895,8.14e-05,53.2138,237.3374,86.3108,273.7977,4.0362e-05,3.55e-06,0.0,0 STARLINK-4547,1 53573U 22101AY  23161.52395917  .00000355  00000-0  40362-4 0  9995,2 53573  53.2138 237.3374 0000814  86.3108 273.7977 15.08840895 45004,6917.878,95.437,540.306,539.18,0.0
53573.0,STARLINK-4547,PAYLOAD,2023-06-10 22:06:48,15.08844258,7.79e-05,53.2138,235.5532,108.0973,252.0104,-5.7947e-05,-1.21e-05,0.0,0 STARLINK-4547,1 53573U 22101AY  23161.92139685 -.00001210  00000-0 -57947-4 0  9997,2 53573  53.2138 235.5532 0000779 108.0973 252.0104 15.08844258 45067,6917.867,95.437,540.271,539.193,0.0
53573.0,STARLINK-4547,PAYLOAD,2023-06-11 14:00:40,15.08843634,9.32e-05,53.2141,232.5794,99.2574,260.8523,0.00012706,1.735e-05,0.0,0 STARLINK-4547,1 53573U 22101AY  23162.58379953  .00001735  00000-0  12706-3 0  9997,2 53573  53.2141 232.5794 0000932  99.2574 260.8523 15.08843634 45167,6917.869,95.437,540.379,539.09,0.0
53573.0,STARLINK-4547,PAYLOAD,2023-06-12 04:19:08,15.08840846,8.76e-05,53.2145,229.9036,89.429,270.6802,0.00014159,1.966e-05,0.0,0 STARLINK-4547,1 53573U 22101AY  23163.17996147  .00001966  00000-0  14159-3 0  9993,2 53573  53.2145 229.9036 0000876  89.4290 270.6802 15.08840846 45254,6917.878,95.438,540.349,539.137,0.0
53573.0,STARLINK-4547,PAYLOAD,2023-06-12 10:40:41,15.08843487,9.01e-05,53.2148,228.7146,88.2404,271.8692,0.00014128,1.962e-05,0.0,0 STARLINK-4547,1 53573U 22101AY  23163.44492004  .00001962  00000-0  14128-3 0  9998,2 53573  53.2148 228.7146 0000901  88.2404 271.8692 15.08843487 45297,6917.87,95.437,540.358,539.111,0.0
53573.0,STARLINK-4547,PAYLOAD,2023-06-13 13:42:14,15.08839105,9.22e-05,53.2144,223.6587,91.2962,268.8136,3.1097e-05,2.07e-06,0.0,0 STARLINK-4547,1 53573U 22101AY  23164.57100277  .00000207  00000-0  31097-4 0  9997,2 53573  53.2144 223.6587 0000922  91.2962 268.8136 15.08839105 45462,6917.883,95.438,540.386,539.11,0.0
53573.0,STARLINK-4547,PAYLOAD,2023-06-14 13:33:01,15.08840512,9.06e-05,53.2145,219.1979,90.7334,269.3762,5.0297e-05,5.13e-06,0.0,0 STARLINK-4547,1 53573U 22101AY  23165.56460274  .00000513  00000-0  50297-4 0  9996,2 53573  53.2145 219.1979 0000906  90.7334 269.3762 15.08840512 45619,6917.879,95.438,540.371,539.117,0.0
53573.0,STARLINK-4547,PAYLOAD,2023-06-14 23:05:20,15.08836212,7.98e-05,53.2143,217.4119,95.1407,264.9676,7.3829e-05,8.87e-06,0.0,0 STARLINK-4547,1 53573U 22101AY  23165.96204506  .00000887  00000-0  73829-4 0  9994,2 53573  53.2143 217.4119 0000798  95.1407 264.9676 15.08836212 45676,6917.892,95.438,540.309,539.205,0.0
53573.0,STARLINK-4547,PAYLOAD,2023-06-15 10:13:02,15.08836679,8.42e-05,53.2142,215.3307,83.907,276.2018,6.6821e-05,7.76e-06,0.0,0 STARLINK-4547,1 53573U 22101AY  23166.42572633  .00000776  00000-0  66821-4 0  9996,2 53573  53.2142 215.3307 0000842  83.9070 276.2018 15.08836679 45743,6917.891,95.438,540.338,539.173,0.0
53573.0,STARLINK-4547,PAYLOAD,2023-06-16 02:06:54,15.08839301,8.81e-05,53.2143,212.3572,87.6812,272.4281,8.7615e-05,1.107e-05,0.0,0 STARLINK-4547,1 53573U 22101AY  23167.08812522  .00001107  00000-0  87615-4 0  9996,2 53573  53.2143 212.3572 0000881  87.6812 272.4281 15.08839301 45849,6917.883,95.438,540.357,539.138,0.0
53573.0,STARLINK-4547,PAYLOAD,2023-06-16 10:03:49,15.08847171,8.94e-05,53.2145,210.8712,79.7862,280.323,0.00015195,2.132e-05,0.0,0 STARLINK-4547,1 53573U 22101AY  23167.41931914  .00002132  00000-0  15195-3 0  9992,2 53573  53.2145 210.8712 0000894  79.7862 280.3230 15.08847171 45892,6917.858,95.437,540.342,539.105,0.0
53573.0,STARLINK-4547,PAYLOAD,2023-06-16 19:36:08,15.08838763,9.04e-05,53.2147,209.0875,77.5197,282.5896,8.9118e-05,1.131e-05,0.0,0 STARLINK-4547,1 53573U 22101AY  23167.81676525  .00001131  00000-0  89118-4 0  9995,2 53573  53.2147 209.0875 0000904  77.5197 282.5896 15.08838763 45959,6917.884,95.438,540.375,539.124,0.0
53573.0,STARLINK-4547,PAYLOAD,2023-06-16 22:46:55,15.08835765,9.26e-05,53.2148,208.4931,82.0682,278.0415,5.9404e-05,6.58e-06,0.0,0 STARLINK-4547,1 53573U 22101AY  23167.94924793  .00000658  00000-0  59404-4 0  9990,2 53573  53.2148 208.4931 0000926  82.0682 278.0415 15.08835765 45978,6917.893,95.438,540.399,539.118,0.0
53573.0,STARLINK-4547,PAYLOAD,2023-06-17 11:30:00,15.0883708,8.91e-05,53.2146,206.1128,89.456,270.6534,5.047e-05,5.16e-06,0.0,0 STARLINK-4547,1 53573U 22101AY  23168.47916833  .00000516  00000-0  50470-4 0  9992,2 53573  53.2146 206.1128 0000891  89.4560 270.6534 15.08837080 46058,6917.889,95.438,540.371,539.138,0.0
53573.0,STARLINK-4547,PAYLOAD,2023-06-17 19:26:56,15.08835354,9.07e-05,53.2149,204.6275,84.6762,275.4333,2.8807e-05,1.71e-06,0.0,0 STARLINK-4547,1 53573U 22101AY  23168.81037077  .00000171  00000-0  28807-4 0  9990,2 53573  53.2149 204.6275 0000907  84.6762 275.4333 15.08835354 46104,6917.895,95.438,540.387,539.132,0.0
53573.0,STARLINK-4547,PAYLOAD,2023-06-17 22:37:42,15.08835527,9.23e-05,53.2149,204.0328,80.53,279.5796,1.2287e-05,-9.2e-07,0.0,0 STARLINK-4547,1 53573U 22101AY  23168.94285121 -.00000092  00000-0  12287-4 0  9997,2 53573  53.2149 204.0328 0000923  80.5300 279.5796 15.08835527 46120,6917.894,95.438,540.398,539.121,0.0
